OBJECT_NAME,OBJECT_ID,EPOCH,MEAN_MOTION,ECCENTRICITY,INCLINATION,RA_OF_ASC_NODE,ARG_OF_PERICENTER,MEAN_ANOMALY,EPHEMERIS_TYPE,CLASSIFICATION_TYPE,NORAD_CAT_ID,ELEMENT_SET_NO,REV_AT_EPOCH,BSTAR,MEAN_MOTION_DOT,MEAN_MOTION_DDOT
ONEWEB-0399,2021-132L,2026-06-25T14:09:53.421696,13.11416809,.0002008,87.8891,19.3966,73.6609,286.4740,0,U,50479,999,21670,-.14431E-2,-.499E-5,0
ONEWEB-0400,2021-132M,2026-06-25T19:27:00.658656,13.18685507,.0002016,87.9178,333.7290,98.1142,262.0219,0,U,50480,999,22274,-.95513E-4,-.25E-6,0
ONEWEB-0401,2021-132N,2026-06-25T20:32:34.021248,13.18685876,.0001595,87.9178,333.7173,94.1763,265.9551,0,U,50481,999,22275,.46949E-4,.31E-6,0
ONEWEB-0402,2021-132P,2026-06-25T19:39:09.212832,13.18686553,.0001379,87.9176,333.7137,89.2112,270.9178,0,U,50482,999,22277,-.1085E-3,-.3E-6,0
ONEWEB-0403,2021-132Q,2026-06-25T20:15:34.274016,13.18685551,.0001932,87.9176,333.7328,90.4726,269.6628,0,U,50483,999,22273,.70484E-4,.41E-6,0
ONEWEB-0404,2021-132R,2026-06-25T13:43:02.028000,13.11415916,.0002072,87.8883,19.3979,81.2012,278.9351,0,U,50484,999,21679,.83135E-4,.42E-6,0
ONEWEB-0405,2021-132S,2026-06-25T20:34:55.660224,13.18691464,.0002392,87.9176,333.7154,102.9775,257.1624,0,U,50485,999,22313,-.13074E-1,-.5139E-4,0
ONEWEB-0406,2021-132T,2026-06-25T20:22:51.223008,13.18686016,.0002196,87.9174,333.7328,82.5155,277.6227,0,U,50486,999,22276,.10897E-4,.17E-6,0
ONEWEB-0407,2021-132U,2026-06-25T20:13:09.110784,13.18687764,.0001718,87.9179,333.7264,100.3814,259.7512,0,U,50487,999,22270,.14504E-4,.19E-6,0
ONEWEB-0409,2021-132V,2026-06-25T13:40:35.693184,13.11413951,.0002087,87.8888,19.3866,84.5151,275.6215,0,U,50488,999,21668,.19386E-3,.81E-6,0
ONEWEB-0412,2021-132W,2026-06-25T19:56:08.548800,13.18685742,.0001543,87.9174,333.7369,91.4182,268.7127,0,U,50489,999,22279,.53323E-4,.34E-6,0
ONEWEB-0413,2021-132X,2026-06-25T20:03:26.664192,13.18686671,.0001551,87.9167,333.7339,97.5563,262.5746,0,U,50490,999,22273,.3439E-4,.26E-6,0
ONEWEB-0414,2021-132Y,2026-06-25T19:41:34.681920,13.18686674,.0001719,87.9178,333.7197,89.8634,270.2695,0,U,50491,999,22276,.67296E-4,.39E-6,0
ONEWEB-0417,2021-132Z,2026-06-25T19:53:42.396288,13.18708639,.0001881,87.9170,333.7369,91.3455,268.7892,0,U,50492,999,22274,-.11517E-1,-.4527E-4,0
ONEWEB-0418,2021-132AA,2026-06-25T20:08:04.394400,13.18685317,.0002072,87.9177,333.7354,89.6145,270.5224,0,U,50493,999,22280,.13051E-3,.64E-6,0
ONEWEB-0419,2021-132AB,2026-06-25T20:35:03.263424,13.18666050,.0002161,87.9178,333.7313,95.5453,264.5926,0,U,50494,999,22272,.77526E-4,.43E-6,0
ONEWEB-0420,2021-132AC,2026-06-25T19:43:59.694816,13.18686757,.0001693,87.9168,333.7404,101.1419,258.9904,0,U,50495,999,22271,-.16995E-3,-.54E-6,0
ONEWEB-0421,2021-132AD,2026-06-25T19:34:17.738112,13.18685611,.0001589,87.9170,333.7397,84.2063,275.9250,0,U,50496,999,22275,-.12306E-3,-.36E-6,0
ONEWEB-0424,2021-132AE,2026-06-25T20:27:42.664032,13.18691014,.000201,87.9175,333.7309,95.0816,265.0546,0,U,50497,999,22278,-.25838E-2,-.1006E-4,0
ONEWEB-0426,2021-132AF,2026-06-25T19:28:12.811296,13.18684800,.0001952,87.9176,333.7299,73.7723,286.3624,0,U,50498,999,22272,-.50987E-4,-.7E-7,0
ONEWEB-0427,2021-132AG,2026-06-25T20:25:17.170752,13.18685917,.0001987,87.9179,333.7112,89.3662,270.7698,0,U,50499,999,22275,.1337E-3,.66E-6,0
ONEWEB-0429,2021-132AH,2026-06-25T20:05:51.266688,13.18686267,.0001759,87.9171,333.7375,97.4713,262.6619,0,U,50500,999,22272,.60229E-4,.37E-6,0
ONEWEB-0430,2021-132AJ,2026-06-25T19:48:52.036128,13.18676760,.0001969,87.9175,333.7384,101.8657,258.2696,0,U,50501,999,22276,-.27349E-2,-.1065E-4,0
ONEWEB-0432,2021-132AK,2026-06-25T19:16:19.854048,13.17155741,.0002344,87.9176,333.7257,104.7378,255.4013,0,U,50502,999,22271,.23646E-3,.104E-5,0
ONEWEB-0440,2021-132AL,2026-06-25T20:17:59.673120,13.18686183,.0001499,87.9179,333.7309,92.9575,267.1729,0,U,50503,999,22271,.13618E-3,.67E-6,0
ONEWEB-0450,2021-132AM,2026-06-25T20:08:29.200704,13.18686513,.000152,87.9154,333.7350,103.1505,256.9797,0,U,50504,999,22274,-.67364E-3,-.253E-5,0
ONEWEB-0410,2022-012A,2026-06-25T13:41:10.495104,13.17649174,.000279,87.9142,4.1899,65.3192,294.8229,0,U,51622,999,21480,.12557E-3,.62E-6,0
ONEWEB-0411,2022-012B,2026-06-25T15:24:06.355008,13.10347474,.00018,87.8843,34.5828,101.9541,258.1788,0,U,51623,999,21039,.85358E-2,.2992E-4,0
ONEWEB-0415,2022-012C,2026-06-25T15:19:13.102176,13.10349334,.0001907,87.8833,34.5826,91.3030,268.8315,0,U,51624,999,21039,.6323E-2,.222E-4,0
ONEWEB-0416,2022-012D,2026-06-25T15:36:20.234016,13.10345739,.0002337,87.8840,34.5978,89.0673,271.0723,0,U,51625,999,21043,.95155E-2,.3334E-4,0
ONEWEB-0422,2022-012E,2026-06-25T13:55:45.397056,13.17649693,.0001294,87.9141,4.1889,101.0701,259.0576,0,U,51626,999,21491,.15214E-3,.72E-6,0
