[
  {
    "name": "ONEWEB-0399",
    "noradId": "50479",
    "line1": "1 50479U 21132L   26176.59020164 -.00000499  00000+0 -14431-2 0  9991",
    "line2": "2 50479  87.8891  19.3966 0002008  73.6609 286.4740 13.11416809216704"
  },
  {
    "name": "ONEWEB-0400",
    "noradId": "50480",
    "line1": "1 50480U 21132M   26176.81042429 -.00000025  00000+0 -95513-4 0  9993",
    "line2": "2 50480  87.9178 333.7290 0002016  98.1142 262.0219 13.18685507222743"
  },
  {
    "name": "ONEWEB-0401",
    "noradId": "50481",
    "line1": "1 50481U 21132N   26176.85594932  .00000031  00000+0  46949-4 0  9993",
    "line2": "2 50481  87.9178 333.7173 0001595  94.1763 265.9551 13.18685876222751"
  },
  {
    "name": "ONEWEB-0402",
    "noradId": "50482",
    "line1": "1 50482U 21132P   26176.81885663 -.00000030  00000+0 -10850-3 0  9996",
    "line2": "2 50482  87.9176 333.7137 0001379  89.2112 270.9178 13.18686553222779"
  },
  {
    "name": "ONEWEB-0403",
    "noradId": "50483",
    "line1": "1 50483U 21132Q   26176.84414669  .00000041  00000+0  70484-4 0  9994",
    "line2": "2 50483  87.9176 333.7328 0001932  90.4726 269.6628 13.18685551222730"
  },
  {
    "name": "ONEWEB-0404",
    "noradId": "50484",
    "line1": "1 50484U 21132R   26176.57155125  .00000042  00000+0  83135-4 0  9992",
    "line2": "2 50484  87.8883  19.3979 0002072  81.2012 278.9351 13.11415916216790"
  },
  {
    "name": "ONEWEB-0405",
    "noradId": "50485",
    "line1": "1 50485U 21132S   26176.85758866 -.00005139  00000+0 -13074-1 0  9991",
    "line2": "2 50485  87.9176 333.7154 0002392 102.9775 257.1624 13.18691464223136"
  },
  {
    "name": "ONEWEB-0406",
    "noradId": "50486",
    "line1": "1 50486U 21132T   26176.84920397  .00000017  00000+0  10897-4 0  9992",
    "line2": "2 50486  87.9174 333.7328 0002196  82.5155 277.6227 13.18686016222766"
  },
  {
    "name": "ONEWEB-0407",
    "noradId": "50487",
    "line1": "1 50487U 21132U   26176.84246656  .00000019  00000+0  14504-4 0  9993",
    "line2": "2 50487  87.9179 333.7264 0001718 100.3814 259.7512 13.18687764222704"
  },
  {
    "name": "ONEWEB-0409",
    "noradId": "50488",
    "line1": "1 50488U 21132V   26176.56985756  .00000081  00000+0  19386-3 0  9995",
    "line2": "2 50488  87.8888  19.3866 0002087  84.5151 275.6215 13.11413951216688"
  },
  {
    "name": "ONEWEB-0412",
    "noradId": "50489",
    "line1": "1 50489U 21132W   26176.83065450  .00000034  00000+0  53323-4 0  9994",
    "line2": "2 50489  87.9174 333.7369 0001543  91.4182 268.7127 13.18685742222796"
  },
  {
    "name": "ONEWEB-0413",
    "noradId": "50490",
    "line1": "1 50490U 21132X   26176.83572528  .00000026  00000+0  34390-4 0  9999",
    "line2": "2 50490  87.9167 333.7339 0001551  97.5563 262.5746 13.18686671222731"
  },
  {
    "name": "ONEWEB-0414",
    "noradId": "50491",
    "line1": "1 50491U 21132Y   26176.82054030  .00000039  00000+0  67296-4 0  9997",
    "line2": "2 50491  87.9178 333.7197 0001719  89.8634 270.2695 13.18686674222760"
  },
  {
    "name": "ONEWEB-0417",
    "noradId": "50492",
    "line1": "1 50492U 21132Z   26176.82896292 -.00004527  00000+0 -11517-1 0  9992",
    "line2": "2 50492  87.9170 333.7369 0001881  91.3455 268.7892 13.18708639222748"
  },
  {
    "name": "ONEWEB-0418",
    "noradId": "50493",
    "line1": "1 50493U 21132AA  26176.83893975  .00000064  00000+0  13051-3 0  9996",
    "line2": "2 50493  87.9177 333.7354 0002072  89.6145 270.5224 13.18685317222803"
  },
  {
    "name": "ONEWEB-0419",
    "noradId": "50494",
    "line1": "1 50494U 21132AB  26176.85767666  .00000043  00000+0  77526-4 0  9991",
    "line2": "2 50494  87.9178 333.7313 0002161  95.5453 264.5926 13.18666050222723"
  },
  {
    "name": "ONEWEB-0420",
    "noradId": "50495",
    "line1": "1 50495U 21132AC  26176.82221869 -.00000054  00000+0 -16995-3 0  9995",
    "line2": "2 50495  87.9168 333.7404 0001693 101.1419 258.9904 13.18686757222717"
  },
  {
    "name": "ONEWEB-0421",
    "noradId": "50496",
    "line1": "1 50496U 21132AD  26176.81548308 -.00000036  00000+0 -12306-3 0  9997",
    "line2": "2 50496  87.9170 333.7397 0001589  84.2063 275.9250 13.18685611222757"
  },
  {
    "name": "ONEWEB-0424",
    "noradId": "50497",
    "line1": "1 50497U 21132AE  26176.85257713 -.00001006  00000+0 -25838-2 0  9990",
    "line2": "2 50497  87.9175 333.7309 0002010  95.0816 265.0546 13.18691014222787"
  },
  {
    "name": "ONEWEB-0426",
    "noradId": "50498",
    "line1": "1 50498U 21132AF  26176.81125939 -.00000007  00000+0 -50987-4 0  9996",
    "line2": "2 50498  87.9176 333.7299 0001952  73.7723 286.3624 13.18684800222723"
  },
  {
    "name": "ONEWEB-0427",
    "noradId": "50499",
    "line1": "1 50499U 21132AG  26176.85089318  .00000066  00000+0  13370-3 0  9998",
    "line2": "2 50499  87.9179 333.7112 0001987  89.3662 270.7698 13.18685917222755"
  },
  {
    "name": "ONEWEB-0429",
    "noradId": "50500",
    "line1": "1 50500U 21132AH  26176.83739892  .00000037  00000+0  60229-4 0  9992",
    "line2": "2 50500  87.9171 333.7375 0001759  97.4713 262.6619 13.18686267222724"
  },
  {
    "name": "ONEWEB-0430",
    "noradId": "50501",
    "line1": "1 50501U 21132AJ  26176.82560227 -.00001065  00000+0 -27349-2 0  9994",
    "line2": "2 50501  87.9175 333.7384 0001969 101.8657 258.2696 13.18676760222766"
  },
  {
    "name": "ONEWEB-0432",
    "noradId": "50502",
    "line1": "1 50502U 21132AK  26176.80300757  .00000104  00000+0  23646-3 0  9991",
    "line2": "2 50502  87.9176 333.7257 0002344 104.7378 255.4013 13.17155741222714"
  },
  {
    "name": "ONEWEB-0440",
    "noradId": "50503",
    "line1": "1 50503U 21132AL  26176.84582955  .00000067  00000+0  13618-3 0  9994",
    "line2": "2 50503  87.9179 333.7309 0001499  92.9575 267.1729 13.18686183222717"
  },
  {
    "name": "ONEWEB-0450",
    "noradId": "50504",
    "line1": "1 50504U 21132AM  26176.83922686 -.00000253  00000+0 -67364-3 0  9999",
    "line2": "2 50504  87.9154 333.7350 0001520 103.1505 256.9797 13.18686513222741"
  },
  {
    "name": "ONEWEB-0410",
    "noradId": "51622",
    "line1": "1 51622U 22012A   26176.57026036  .00000062  00000+0  12557-3 0  9994",
    "line2": "2 51622  87.9142   4.1899 0002790  65.3192 294.8229 13.17649174214808"
  },
  {
    "name": "ONEWEB-0411",
    "noradId": "51623",
    "line1": "1 51623U 22012B   26176.64174022  .00002992  00000+0  85358-2 0  9994",
    "line2": "2 51623  87.8843  34.5828 0001800 101.9541 258.1788 13.10347474210395"
  },
  {
    "name": "ONEWEB-0415",
    "noradId": "51624",
    "line1": "1 51624U 22012C   26176.63834609  .00002220  00000+0  63230-2 0  9997",
    "line2": "2 51624  87.8833  34.5826 0001907  91.3030 268.8315 13.10349334210397"
  },
  {
    "name": "ONEWEB-0416",
    "noradId": "51625",
    "line1": "1 51625U 22012D   26176.65023419  .00003334  00000+0  95155-2 0  9997",
    "line2": "2 51625  87.8840  34.5978 0002337  89.0673 271.0723 13.10345739210438"
  },
  {
    "name": "ONEWEB-0422",
    "noradId": "51626",
    "line1": "1 51626U 22012E   26176.58038654  .00000072  00000+0  15214-3 0  9992",
    "line2": "2 51626  87.9141   4.1889 0001294 101.0701 259.0576 13.17649693214918"
  }
]